EUTELSAT 7B             
1 39163U 13022A   24334.92132694  .00000077  00000+0  00000+0 0  9994
2 39163   0.0771  25.1160 0004162 292.5492  90.3164  1.00272947 42292
WGS F5 (USA 243)        
1 39168U 13024A   24335.06438152 -.00000255  00000+0  00000+0 0  9994
2 39168   0.0189 324.0240 0000262 166.8178 269.2751  1.00272509 42171
SES-6                   
1 39172U 13026A   24335.11021767 -.00000232  00000+0  00000+0 0  9992
2 39172   0.0227 323.0898 0002232 287.0724 178.5065  1.00270809 42068
IRNSS-1A                
1 39199U 13034A   24331.86368769  .00000084  00000+0  00000+0 0  9998
2 39199  34.4475  72.0732 0022540 184.4510 175.7883  1.00278507 41685
MUOS-2                  
1 39206U 13036A   24335.15674330  .00000091  00000+0  00000+0 0  9997
2 39206   3.9143  42.5570 0056866 181.6762  84.6852  1.00270989 41641
ALPHASAT                
1 39215U 13038A   24335.10188188  .00000160  00000+0  00000+0 0  9992
2 39215   2.9106   6.1544 0001987 230.6900 254.1446  1.00269693 41619
INSAT-3D                
1 39216U 13038B   24335.01368991 -.00000310  00000+0  00000+0 0  9993
2 39216   0.4626  90.5962 0001982 160.9777 312.2569  1.00274933 41641
WGS F6 (USA 244)        
1 39222U 13041A   24334.49762859  .00000118  00000+0  00000+0 0  9991
2 39222   0.0003  29.3057 0000225 272.5034 171.0331  1.00270716 41400
ES'HAIL 1               
1 39233U 13044A   24334.91576977  .00000172  00000+0  00000+0 0  9997
2 39233   0.0563  21.7231 0002095 235.3160 167.4378  1.00273918 40964
GSAT-7                  
1 39234U 13044B   24334.98903619 -.00000048  00000+0  00000+0 0  9995
2 39234   0.0537 117.6375 0009777 145.2906 236.5166  1.00271637 41242
AMOS-4                  
1 39237U 13045A   24334.96513459  .00000036  00000+0  00000+0 0  9992
2 39237   0.0069 103.8405 0002562 172.8938 205.0521  1.00271970 41237
AEHF-3 (USA 246)        
1 39256U 13050A   24334.91987539  .00000057  00000+0  00000+0 0  9991
2 39256   3.8889  71.8295 0093586 174.8304  29.4994  1.00271735 41023
ASTRA 2E                
1 39285U 13056A   24334.91576977  .00000179  00000+0  00000+0 0  9994
2 39285   0.0655 328.3295 0002844 284.5018 174.6557  1.00272548 40764
FM-6                    
1 39360U 13058A   24334.19355066  .00000012  00000+0  00000+0 0  9990
2 39360   0.0195 318.5759 0000094 267.2176 156.3037  1.00268486 40688
RADUGA-1M 3             
1 39375U 13062A   24334.45112344  .00000181  00000+0  00000+0 0  9997
2 39375   4.5224  79.2680 0002888 324.0564 222.9414  1.00272407 40469
SES-8                   
1 39460U 13071A   24334.90396583 -.00000241  00000+0  00000+0 0  9999
2 39460   0.0150 287.4335 0000948 253.1233 309.1634  1.00272829 38774
INMARSAT 5-F1           
1 39476U 13073A   24334.02779936  .00000056  00000+0  00000+0 0  9991
2 39476   0.0238  45.2359 0000382 123.3838 332.4196  1.00269236 40262
TKSAT-1 (TUPAC KATARI)  
1 39481U 13075A   24334.78408112 -.00000166  00000+0  00000+0 0  9990
2 39481   0.0652 115.3685 0002585 150.2258 358.6620  1.00271752 39931
EXPRESS-AM5             
1 39487U 13077A   24334.82934588 -.00000251  00000+0  00000+0 0  9999
2 39487   0.0143 289.7158 0001802 354.3620 223.7442  1.00271802 40701
GSAT-14                 
1 39498U 14001A   24333.75118905 -.00000050  00000+0  00000+0 0  9994
2 39498   0.0295 265.4545 0006237 350.2707 156.8630  1.00271689 39717
THAICOM 6               
1 39500U 14002A   24334.07723015 -.00000093  00000+0  00000+0 0  9996
2 39500   0.0686 111.1968 0002045 117.7119 305.8323  1.00274242 39855
TDRS 12                 
1 39504U 14004A   24334.86488001 -.00000244  00000+0  00000+0 0  9990
2 39504   3.5882   7.3985 0005622 238.7448  93.4288  1.00277581 38615
ABS-2                   
1 39508U 14006A   24334.88790336 -.00000058  00000+0  00000+0 0  9998
2 39508   0.0639  90.0052 0003466 150.3950 223.4459  1.00271953 39620
ATHENA-FIDUS            
1 39509U 14006B   24334.98920693  .00000183  00000+0  00000+0 0  9999
2 39509   0.0171 328.9119 0001016 270.8374 223.5083  1.00270208 39846
TURKSAT 4A              
1 39522U 14007A   24334.72202370  .00000175  00000+0  00000+0 0  9993
2 39522   0.0252 270.2197 0004681 352.4085 108.3959  1.00272730 39319
EXPRESS-AT1             
1 39612U 14010A   24334.88416749  .00000107  00000+0  00000+0 0  9996
2 39612   0.0165 301.8718 0000517 207.1438 294.5617  1.00273096 39151
EXPRESS-AT2             
1 39613U 14010B   24334.82934588 -.00000252  00000+0  00000+0 0  9999
2 39613   0.0170 310.7237 0001404 317.4529 239.4657  1.00271633 38847
AMAZONAS 4A             
1 39616U 14011A   24334.85836399 -.00000223  00000+0  00000+0 0  9995
2 39616   0.0554 155.8738 0004404  91.3838  56.9885  1.00274843 39048
ASTRA 5B                
1 39617U 14011B   24334.91576977  .00000166  00000+0  00000+0 0  9991
2 39617   0.0492 329.0500 0004192 289.4094 164.0247  1.00273312 39010
IRNSS-1B                
1 39635U 14017A   24333.84841218  .00000121  00000+0  00000+0 0  9992
2 39635  29.1000 250.0414 0018452 184.5427 354.0604  1.00271927 39112
LUCH-5V                 
1 39727U 14023A   24334.82031029 -.00000241  00000+0  00000+0 0  9995
2 39727   3.7156  74.7953 0004454 197.0911 187.2997  1.00268088 38706
KAZSAT-3                
1 39728U 14023B   24334.95610457  .00000089  00000+0  00000+0 0  9997
2 39728   0.0477  93.0892 0000537 233.1584 145.8188  1.00272939 38785
EUTELSAT 3B             
1 39773U 14030A   24334.86438170  .00000049  00000+0  00000+0 0  9991
2 39773   0.0632 354.8367 0004980 226.3559 162.3529  1.00270408 38406
ASIASAT 8 (AMOS-7)      
1 40107U 14046A   24334.87226486 -.00000004  00000+0  00000+0 0  9999
2 40107   0.0174 347.4995 0001743 254.8884 136.9989  1.00271252 96483
ASIASAT 6               
1 40141U 14052A   24334.88174507 -.00000333  00000+0  00000+0 0  9996
2 40141   0.0174 327.1865 0000811 231.7287 307.6604  1.00270781 37413
OPTUS 10                
1 40146U 14054A   24334.90388937 -.00000119  00000+0  00000+0 0  9992
2 40146   0.1102  10.3637 0001793 183.5575 356.7752  1.00267606 37468
MEASAT-3B               
1 40147U 14054B   24334.90396583 -.00000213  00000+0  00000+0 0  9994
2 40147   0.0635  61.2877 0000678 246.8514 178.0779  1.00272594 37261
LUCH (OLYMP-K 1)        
1 40258U 14058A   24334.86939781 -.00000112  00000+0  00000+0 0  9997
2 40258   0.4315  89.1324 0003148 206.8564  68.1466  1.00272144 35334
HIMAWARI-8              
1 40267U 14060A   24334.97235124 -.00000246  00000+0  00000+0 0  9990
2 40267   0.0466 112.2672 0000891 116.8830 330.9072  1.00273376 37208
IRNSS-1C                
1 40269U 14061A   24334.96096990 -.00000133  00000+0  00000+0 0  9993
2 40269   5.0819 100.7753 0018383   6.5415  30.9402  1.00273998 37178
INTELSAT 30 (IS-30)     
1 40271U 14062A   24333.35330578 -.00000124  00000+0  00000+0 0  9992
2 40271   0.0198  24.4175 0001618 354.1385  81.3432  1.00270716  1110
ARSAT 1                 
1 40272U 14062B   24335.07549319 -.00000231  00000+0  00000+0 0  9998
2 40272   0.0288  37.1197 0001952 213.9737 133.7424  1.00272519 37238
EXPRESS-AM6             
1 40277U 14064A   24334.97826878  .00000127  00000+0  00000+0 0  9994
2 40277   0.0155 296.6509 0000458 150.3963  27.4973  1.00272815 37013
GSAT-16                 
1 40332U 14078A   24334.81249104  .00000113  00000+0  00000+0 0  9990
2 40332   0.0240  69.7317 0003897  48.2852 298.7164  1.00272352 36445
DIRECTV 14              
1 40333U 14078B   24334.47682532 -.00000098  00000+0  00000+0 0  9992
2 40333   0.0213 304.7733 0000159 277.9437 278.5949  1.00278837 36584
YAMAL 401               
1 40345U 14082A   24333.83157059 -.00000200  00000+0  00000+0 0  9995
2 40345   0.0154 277.9435 0000669 330.9297 208.6892  1.00268670 36744
ASTRA 2G                
1 40364U 14089A   24334.80710446  .00000179  00000+0  00000+0 0  9990
2 40364   0.0601  36.6080 0001015 351.7037 359.6803  1.00274970 36308
FENGYUN 2G              
1 40367U 14090A   24334.82126598 -.00000273  00000+0  00000+0 0  9992
2 40367   4.2011  79.6264 0002069 189.9689 194.6877  1.00264391 36345
MUOS-3                  
1 40374U 15002A   24335.03105080 -.00000101  00000+0  00000+0 0  9991
2 40374   3.5003  38.2009 0059410 181.7645 205.1673  1.00270890 36161
INMARSAT 5-F2           
1 40384U 15005A   24334.86175233 -.00000256  00000+0  00000+0 0  9993
2 40384   0.0184  35.3152 0000534 135.8023 153.3339  1.00270481 36017
ABS-3A                  
1 40424U 15010A   24334.86438170  .00000003  00000+0  00000+0 0  9995
2 40424   0.0127  89.5731 0001739 100.9581 186.9167  1.00269559 35714
EUTELSAT 115 WEST B     
1 40425U 15010B   24334.56413204  .00000004  00000+0  00000+0 0  9995
2 40425   0.0107 140.6824 0000299 110.1980 266.2689  1.00272176 35733
EXPRESS-AM7             
1 40505U 15012A   24335.09077209  .00000180  00000+0  00000+0 0  9991
2 40505   0.0152 319.2899 0002710 294.6598 248.2079  1.00269727 35709
IRNSS-1D                
1 40547U 15018A   24334.66324560 -.00000263  00000+0  00000+0 0  9993
2 40547  27.1593 249.8304 0018303 183.3949 346.5977  1.00272022 35321
BEIDOU-3S IGSO-1S       
1 40549U 15019A   24334.89181297 -.00000188  00000+0  00000+0 0  9995
2 40549  50.2672 302.2272 0034978 198.8464 345.7668  1.00267912 35404
THOR 7                  
1 40613U 15022A   24334.72995454  .00000021  00000+0  00000+0 0  9996
2 40613   0.0461 111.6846 0002197 123.7799  95.7732  1.00271739 35158
TURKMENALEM52E/MONACOSAT
1 40617U 15023A   24334.88329868  .00000132  00000+0  00000+0 0  9991
2 40617   0.0164   3.6825 0002874 249.0336 186.5732  1.00269735 35185
DIRECTV 15              
1 40663U 15026A   24334.39632649 -.00000074  00000+0  00000+0 0  9991
2 40663   0.0533 102.6605 0000178  35.5315 330.4102  1.00270725 34879
SKY MEXICO-1            
1 40664U 15026B   24334.85740829 -.00000205  00000+0  00000+0 0  9999
2 40664   0.0234 332.0272 0002233 287.9679  39.1556  1.00272173 34793
